 
    Coasting Arc #2 (Orbit 3175)
    ---------------------------------------
 
    Vector Time (GMT): 2016/084/04:47:30.000
    Vector Time (MET): N/A
    Weight (LBS)     : 904106.9
 
              M50 Cartesian                         M50 Keplerian  
    -----------------------------------       --------------------------------
     X    =        3724751.59                 A    =         6777032.29  meter
     Y    =        1918677.53  meter          E    =           .0014545
     Z    =       -5339091.54                 I    =           51.93329
     XDOT =      -3771.705685                 Wp   =           81.21424
     YDOT =       6660.719291  meter/sec      RA   =          120.90508  deg
     ZDOT =       -236.047934                 TA   =          186.53251
                                              MA   =          186.55149
                                              Ha   =            220.757  n.mi
                                              Hp   =            214.746
 
              M50 Cartesian                         J2K Cartesian  
    -----------------------------------       --------------------------------
     X    =       12220313.60                 X    =         3728954.67
     Y    =        6294873.80  feet           Y    =         1960352.83  meter
     Z    =      -17516704.53                 Z    =        -5320987.71
     XDOT =     -12374.362485                 XDOT =       -3844.760563
     YDOT =      21852.753578  feet/sec       YDOT =        6618.133058  meter/sec
     ZDOT =       -774.435478                 ZDOT =        -254.548459
 
              TDR Cartesian                         TDR Cartesian  
    -----------------------------------       --------------------------------
     X    =       -9602676.88                 X    =        -2926895.91
     Y    =        9974417.06  feet           Y    =         3040202.32  meter
     Z    =      -17438349.67                 Z    =        -5315208.98
     XDOT =     -16593.133377                 XDOT =       -5057.587053
     YDOT =     -17480.406641  feet/sec       YDOT =       -5328.027944  meter/sec
     ZDOT =       -855.910196                 ZDOT =        -260.881428
  
  
    The mean element set is posted at the UTC for which position is
    just north of the next ascending node relative to the above
    vector time
 
 
    TWO LINE MEAN ELEMENT SET
  
    ISS
    1 25544U 98067A   16084.21619019  .00016717  00000-0  10270-3 0  9016
    2 25544  51.6401 121.8217 0001818 345.1519  14.9580 15.54247992 31769
  
  
    Satellite: ISS
    Catalog Number: 25544
    Epoch time:      16084.21619019   =   yrday.fracday
    Element set:     901
    Inclination:       51.6401  deg
    RA of node:       121.8217  deg
    Eccentricity:     .0001818     
    Arg of perigee:   345.1519  deg
    Mean anomaly:      14.9580  deg
    Mean motion:   15.54247992  rev/day
    Decay rate:    1.67170E-04  rev/day^2
    Epoch rev:            3176
    Checksum:              299
 
 
    Coasting Arc #3 (Orbit 3191)
    ---------------------------------------
 
    Vector Time (GMT): 2016/085/04:47:30.000
    Vector Time (MET): N/A
    Weight (LBS)     : 904106.9
 
              M50 Cartesian                         M50 Keplerian  
    -----------------------------------       --------------------------------
     X    =       -2743029.28                 A    =         6778091.81  meter
     Y    =       -3504911.91  meter          E    =           .0006145
     Z    =        5109935.10                 I    =           51.95145
     XDOT =       4434.760581                 Wp   =           40.17532
     YDOT =      -6012.450270  meter/sec      RA   =          115.92437  deg
     ZDOT =      -1737.620390                 TA   =           66.57527
                                              MA   =           66.51067
                                              Ha   =            220.957  n.mi
                                              Hp   =            214.642
 
              M50 Cartesian                         J2K Cartesian  
    -----------------------------------       --------------------------------
     X    =       -8999439.89                 X    =        -2728454.59
     Y    =      -11499054.84  feet           Y    =        -3535504.03  meter
     Z    =       16764878.95                 Z    =         5096646.02
     XDOT =      14549.739438                 XDOT =        4510.104344
     YDOT =     -19725.886714  feet/sec       YDOT =       -5962.436818  meter/sec
     ZDOT =      -5700.854299                 ZDOT =       -1715.893433
 
              TDR Cartesian                         TDR Cartesian  
    -----------------------------------       --------------------------------
     X    =       13551800.47                 X    =         4130588.78
     Y    =       -5610752.08  feet           Y    =        -1710157.23  meter
     Z    =       16707708.15                 Z    =         5092509.44
     XDOT =      14569.439005                 XDOT =        4440.765009
     YDOT =      18441.822958  feet/sec       YDOT =        5621.067638  meter/sec
     ZDOT =      -5605.449750                 ZDOT =       -1708.541084
  
  
    The mean element set is posted at the UTC for which position is
    just north of the next ascending node relative to the above
    vector time
 
 
    TWO LINE MEAN ELEMENT SET
  
    ISS
    1 25544U 98067A   16085.24495224  .00016717  00000-0  10270-3 0  9021
    2 25544  51.6394 116.6916 0001766 349.8644  10.2472 15.54205705 31923
  
  
    Satellite: ISS
    Catalog Number: 25544
    Epoch time:      16085.24495224   =   yrday.fracday
    Element set:     902
    Inclination:       51.6394  deg
    RA of node:       116.6916  deg
    Eccentricity:     .0001766     
    Arg of perigee:   349.8644  deg
    Mean anomaly:      10.2472  deg
    Mean motion:   15.54205705  rev/day
    Decay rate:    1.67170E-04  rev/day^2
    Epoch rev:            3192
    Checksum:              308
 
 
    Coasting Arc #4 (Orbit 3206)
    ---------------------------------------
 
    Vector Time (GMT): 2016/086/04:47:30.000
    Vector Time (MET): N/A
    Weight (LBS)     : 904106.9
 
              M50 Cartesian                         M50 Keplerian  
    -----------------------------------       --------------------------------
     X    =        1761754.41                 A    =         6781037.48  meter
     Y    =        4904074.87  meter          E    =           .0007784
     Z    =       -4346579.37                 I    =           51.97580
     XDOT =      -4793.873108                 Wp   =           98.98966
     YDOT =       4833.714542  meter/sec      RA   =          110.95175  deg
     ZDOT =       3514.811557                 TA   =          206.60734
                                              MA   =          206.64731
                                              Ha   =            220.814  n.mi
                                              Hp   =            214.659
 
              M50 Cartesian                         J2K Cartesian  
    -----------------------------------       --------------------------------
     X    =        5780034.15                 X    =         1727898.84
     Y    =       16089484.48  feet           Y    =         4923586.08  meter
     Z    =      -14260431.00                 Z    =        -4338104.06
     XDOT =     -15727.930143                 XDOT =       -4864.642175
     YDOT =      15858.643512  feet/sec       YDOT =        4779.711058  meter/sec
     ZDOT =      11531.533979                 ZDOT =        3491.351406
 
              TDR Cartesian                         TDR Cartesian  
    -----------------------------------       --------------------------------
     X    =      -17057199.37                 X    =        -5199034.37
     Y    =        1535606.75  feet           Y    =          468052.94  meter
     Z    =      -14224417.73                 Z    =        -4335602.52
     XDOT =     -11149.300189                 XDOT =       -3398.306698
     YDOT =     -18105.776458  feet/sec       YDOT =       -5518.640664  meter/sec
     ZDOT =      11428.777331                 ZDOT =        3483.491331
  
  
    The mean element set is posted at the UTC for which position is
    just north of the next ascending node relative to the above
    vector time
 
 
    TWO LINE MEAN ELEMENT SET
  
    ISS
    1 25544U 98067A   16086.20940936  .00016717  00000-0  10270-3 0  9034
    2 25544  51.6403 111.8834 0001868 347.7195  12.3912 15.54241716 32072
  
  
    Satellite: ISS
    Catalog Number: 25544
    Epoch time:      16086.20940936   =   yrday.fracday
    Element set:     903
    Inclination:       51.6403  deg
    RA of node:       111.8834  deg
    Eccentricity:     .0001868     
    Arg of perigee:   347.7195  deg
    Mean anomaly:      12.3912  deg
    Mean motion:   15.54241716  rev/day
    Decay rate:    1.67170E-04  rev/day^2
    Epoch rev:            3207
    Checksum:              300
 
 
    Coasting Arc #5 (Orbit 3210)
    ---------------------------------------
 
    Vector Time (GMT): 2016/086/10:40:00.000
    Vector Time (MET): N/A
    Weight (LBS)     : 917037.0
 
